25943,GLOBALSTAR M057,1999,117.57,-1.0,-,52.0,Inactive,0,LEO,Kazakhstan,Globalstar,Unknown,Unknown,Unknown,1 25943U 99058A   25125.67871752 -.00000064  00000+0  25895-3 0  9994,2 25943  51.9963 108.8405 0002691 293.8532  66.2035 12.24818855161727,12.24818855,0.0002691,LEO
25944,GLOBALSTAR M059,1999,120.0,-1.0,-,52.0,Inactive,0,LEO,Kazakhstan,Globalstar,Unknown,Unknown,Unknown,1 25944U 99058B   25125.96335975 -.00000038  00000+0  59580-3 0  9998,2 25944  52.0031 321.4027 0000674 139.4678  10.2446 11.99979686568978,11.99979686,6.74e-05,LEO
25945,GLOBALSTAR M056,1999,119.52,-1.0,-,52.0,Inactive,0,LEO,Kazakhstan,Globalstar,Unknown,Unknown,Unknown,1 25945U 99058C   25125.85106061 -.00000080  00000+0  86176-4 0  9998,2 25945  51.9981 324.7520 0001871  97.1172 276.4625 12.04778662157522,12.04778662,0.0001871,LEO
25946,GLOBALSTAR M031,1999,118.42,-1.0,-,52.0,Inactive,0,LEO,Kazakhstan,Globalstar,Unknown,Unknown,Unknown,1 25946U 99058D   25125.77185345  .00000021  00000+0  11348-2 0  9993,2 25946  51.9954 219.8393 0001698 107.7078  43.7585 12.16034630159384,12.1603463,0.0001698,LEO
25961,GLOBALSTAR M039,1999,114.08,-1.0,-,51.99,Inactive,0,LEO,Kazakhstan,Globalstar,Unknown,Unknown,Unknown,1 25961U 99062A   25125.88270730 -.00000057  00000+0  25892-3 0  9990,2 25961  51.9866  37.5660 0002041 257.1944 102.8695 12.62325175174878,12.62325175,0.0002041,LEO
25962,GLOBALSTAR M034,1999,122.09,-1.0,-,51.98,Inactive,0,LEO,Kazakhstan,Globalstar,Unknown,Unknown,Unknown,1 25962U 99062B   25126.17268323 -.00000048  00000+0  52115-3 0  9997,2 25962  51.9843 120.5991 0014290 321.4949 118.9632 11.79447906133411,11.79447906,0.001429,LEO
25963,GLOBALSTAR M029,1999,120.01,-1.0,-,51.98,Inactive,0,LEO,Kazakhstan,Globalstar,Unknown,Unknown,Unknown,1 25963U 99062C   25125.71249150 -.00000063  00000+0  28697-3 0  9999,2 25963  51.9795 210.1545 0002293  44.7401  73.4330 11.99895979164027,11.99895979,0.0002293,LEO
25964,GLOBALSTAR M061,1999,122.37,-1.0,-,51.98,Inactive,0,LEO,Kazakhstan,Globalstar,Unknown,Unknown,Unknown,1 25964U 99062D   25125.91785571 -.00000032  00000+0  78561-3 0  9995,2 25964  51.9803 304.7382 0005400 239.1244 226.5406 11.76774662116207,11.76774662,0.00054,LEO
